CCSDS_OMM_VERS = 2.0
CREATION_DATE  = 
ORIGINATOR     = 

OBJECT_NAME    = UNKNOWN
OBJECT_ID      = 
CENTER_NAME    = EARTH
REF_FRAME      = TEME
TIME_SYSTEM    = UTC
MEAN_ELEMENT_THEORY = SGP/SGP4

EPOCH          = 2026-03-20T02:09:20.026368
MEAN_MOTION    = 14.35289191
ECCENTRICITY   = .0015861
INCLINATION    = 74.0332
RA_OF_ASC_NODE = 229.8021
ARG_OF_PERICENTER = 34.6420
MEAN_ANOMALY   = 325.5762

EPHEMERIS_TYPE = 0
CLASSIFICATION_TYPE = U
NORAD_CAT_ID   = 82189
ELEMENT_SET_NO = 999
REV_AT_EPOCH   = 64638
BSTAR          = .10417E-3
MEAN_MOTION_DOT = .273E-5
MEAN_MOTION_DDOT = 0

CCSDS_OMM_VERS = 2.0
CREATION_DATE  = 
ORIGINATOR     = 

OBJECT_NAME    = UNKNOWN
OBJECT_ID      = 
CENTER_NAME    = EARTH
REF_FRAME      = TEME
TIME_SYSTEM    = UTC
MEAN_ELEMENT_THEORY = SGP/SGP4

EPOCH          = 2026-03-20T12:04:46.861824
MEAN_MOTION    = 13.85899979
ECCENTRICITY   = .0039442
INCLINATION    = 82.9692
RA_OF_ASC_NODE = 160.3935
ARG_OF_PERICENTER = 119.3839
MEAN_ANOMALY   = 258.9782

EPHEMERIS_TYPE = 0
CLASSIFICATION_TYPE = U
NORAD_CAT_ID   = 82199
ELEMENT_SET_NO = 999
REV_AT_EPOCH   = 62323
BSTAR          = .3818E-3
MEAN_MOTION_DOT = .457E-5
MEAN_MOTION_DDOT = 0

CCSDS_OMM_VERS = 2.0
CREATION_DATE  = 
ORIGINATOR     = 

OBJECT_NAME    = UNKNOWN
OBJECT_ID      = 
CENTER_NAME    = EARTH
REF_FRAME      = TEME
TIME_SYSTEM    = UTC
MEAN_ELEMENT_THEORY = SGP/SGP4

EPOCH          = 2026-03-19T16:18:09.984672
MEAN_MOTION    = 13.94056045
ECCENTRICITY   = .0496552
INCLINATION    = 63.0106
RA_OF_ASC_NODE = 330.0053
ARG_OF_PERICENTER = 303.0078
MEAN_ANOMALY   = 52.4172

EPHEMERIS_TYPE = 0
CLASSIFICATION_TYPE = U
NORAD_CAT_ID   = 82205
ELEMENT_SET_NO = 999
REV_AT_EPOCH   = 62151
BSTAR          = .4217E-3
MEAN_MOTION_DOT = .1442E-4
MEAN_MOTION_DDOT = 0

CCSDS_OMM_VERS = 2.0
CREATION_DATE  = 
ORIGINATOR     = 

OBJECT_NAME    = UNKNOWN
OBJECT_ID      = 
CENTER_NAME    = EARTH
REF_FRAME      = TEME
TIME_SYSTEM    = UTC
MEAN_ELEMENT_THEORY = SGP/SGP4

EPOCH          = 2026-03-18T15:16:52.760928
MEAN_MOTION    = 14.12383873
ECCENTRICITY   = .0069351
INCLINATION    = 99.3155
RA_OF_ASC_NODE = 332.3329
ARG_OF_PERICENTER = 76.3140
MEAN_ANOMALY   = 284.5740

EPHEMERIS_TYPE = 0
CLASSIFICATION_TYPE = U
NORAD_CAT_ID   = 82223
ELEMENT_SET_NO = 999
REV_AT_EPOCH   = 46232
BSTAR          = .12823E-2
MEAN_MOTION_DOT = .2372E-4
MEAN_MOTION_DDOT = 0

CCSDS_OMM_VERS = 2.0
CREATION_DATE  = 
ORIGINATOR     = 

OBJECT_NAME    = UNKNOWN
OBJECT_ID      = 
CENTER_NAME    = EARTH
REF_FRAME      = TEME
TIME_SYSTEM    = UTC
MEAN_ELEMENT_THEORY = SGP/SGP4

EPOCH          = 2026-03-21T13:54:15.255072
MEAN_MOTION    = 14.14666342
ECCENTRICITY   = .0069875
INCLINATION    = 98.9067
RA_OF_ASC_NODE = 350.7509
ARG_OF_PERICENTER = 273.3328
MEAN_ANOMALY   = 208.8658

EPHEMERIS_TYPE = 0
CLASSIFICATION_TYPE = U
NORAD_CAT_ID   = 82250
ELEMENT_SET_NO = 999
REV_AT_EPOCH   = 63060
BSTAR          = .2129E-2
MEAN_MOTION_DOT = .4149E-4
MEAN_MOTION_DDOT = 0

CCSDS_OMM_VERS = 2.0
CREATION_DATE  = 
ORIGINATOR     = 

OBJECT_NAME    = UNKNOWN
OBJECT_ID      = 
CENTER_NAME    = EARTH
REF_FRAME      = TEME
TIME_SYSTEM    = UTC
MEAN_ELEMENT_THEORY = SGP/SGP4

EPOCH          = 2026-03-21T03:19:07.271904
MEAN_MOTION    = 12.33636973
ECCENTRICITY   = .0753718
INCLINATION    = 67.5285
RA_OF_ASC_NODE = 22.5336
ARG_OF_PERICENTER = 42.8367
MEAN_ANOMALY   = 322.8900

EPHEMERIS_TYPE = 0
CLASSIFICATION_TYPE = U
NORAD_CAT_ID   = 82272
ELEMENT_SET_NO = 999
REV_AT_EPOCH   = 28407
BSTAR          = .32964E-2
MEAN_MOTION_DOT = .1019E-4
MEAN_MOTION_DDOT = 0

CCSDS_OMM_VERS = 2.0
CREATION_DATE  = 
ORIGINATOR     = 

OBJECT_NAME    = UNKNOWN
OBJECT_ID      = 
CENTER_NAME    = EARTH
REF_FRAME      = TEME
TIME_SYSTEM    = UTC
MEAN_ELEMENT_THEORY = SGP/SGP4

EPOCH          = 2026-03-20T19:50:19.231008
MEAN_MOTION    = 13.92564920
ECCENTRICITY   = .0042389
INCLINATION    = 81.9358
RA_OF_ASC_NODE = 278.0347
ARG_OF_PERICENTER = 27.7449
MEAN_ANOMALY   = 351.2511

EPHEMERIS_TYPE = 0
CLASSIFICATION_TYPE = U
NORAD_CAT_ID   = 82303
ELEMENT_SET_NO = 999
REV_AT_EPOCH   = 52805
BSTAR          = .16821E-1
MEAN_MOTION_DOT = .21905E-3
MEAN_MOTION_DDOT = 0

CCSDS_OMM_VERS = 2.0
CREATION_DATE  = 
ORIGINATOR     = 

OBJECT_NAME    = UNKNOWN
OBJECT_ID      = 
CENTER_NAME    = EARTH
REF_FRAME      = TEME
TIME_SYSTEM    = UTC
MEAN_ELEMENT_THEORY = SGP/SGP4

EPOCH          = 2026-03-19T14:07:24.373056
MEAN_MOTION    = 13.54679387
ECCENTRICITY   = .0109263
INCLINATION    = 99.4217
RA_OF_ASC_NODE = 132.9929
ARG_OF_PERICENTER = 64.7942
MEAN_ANOMALY   = 296.4477

EPHEMERIS_TYPE = 0
CLASSIFICATION_TYPE = U
NORAD_CAT_ID   = 82311
ELEMENT_SET_NO = 999
REV_AT_EPOCH   = 56343
BSTAR          = .64659E-3
MEAN_MOTION_DOT = .419E-5
MEAN_MOTION_DDOT = 0

CCSDS_OMM_VERS = 2.0
CREATION_DATE  = 
ORIGINATOR     = 

OBJECT_NAME    = UNKNOWN
OBJECT_ID      = 
CENTER_NAME    = EARTH
REF_FRAME      = TEME
TIME_SYSTEM    = UTC
MEAN_ELEMENT_THEORY = SGP/SGP4

EPOCH          = 2026-03-21T10:22:18.425280
MEAN_MOTION    = 13.15703865
ECCENTRICITY   = .0450777
INCLINATION    = 66.9398
RA_OF_ASC_NODE = 342.6383
ARG_OF_PERICENTER = 102.0599
MEAN_ANOMALY   = 263.1316

EPHEMERIS_TYPE = 0
CLASSIFICATION_TYPE = U
NORAD_CAT_ID   = 82363
ELEMENT_SET_NO = 999
REV_AT_EPOCH   = 30324
BSTAR          = .10309E-2
MEAN_MOTION_DOT = .593E-5
MEAN_MOTION_DDOT = 0

CCSDS_OMM_VERS = 2.0
CREATION_DATE  = 
ORIGINATOR     = 

OBJECT_NAME    = UNKNOWN
OBJECT_ID      = 
CENTER_NAME    = EARTH
REF_FRAME      = TEME
TIME_SYSTEM    = UTC
MEAN_ELEMENT_THEORY = SGP/SGP4

EPOCH          = 2026-03-21T11:58:58.191168
MEAN_MOTION    = 13.98233579
ECCENTRICITY   = .0084129
INCLINATION    = 98.8953
RA_OF_ASC_NODE = 97.5799
ARG_OF_PERICENTER = 66.1756
MEAN_ANOMALY   = 294.8198

EPHEMERIS_TYPE = 0
CLASSIFICATION_TYPE = U
NORAD_CAT_ID   = 82369
ELEMENT_SET_NO = 999
REV_AT_EPOCH   = 57097
BSTAR          = .49562E-4
MEAN_MOTION_DOT = .31E-6
MEAN_MOTION_DDOT = 0

CCSDS_OMM_VERS = 2.0
CREATION_DATE  = 
ORIGINATOR     = 

OBJECT_NAME    = UNKNOWN
OBJECT_ID      = 
CENTER_NAME    = EARTH
REF_FRAME      = TEME
TIME_SYSTEM    = UTC
MEAN_ELEMENT_THEORY = SGP/SGP4

EPOCH          = 2026-03-20T02:14:17.009088
MEAN_MOTION    = 14.86262725
ECCENTRICITY   = .0006719
INCLINATION    = 98.3907
RA_OF_ASC_NODE = 313.7951
ARG_OF_PERICENTER = 183.0917
MEAN_ANOMALY   = 177.0257

EPHEMERIS_TYPE = 0
CLASSIFICATION_TYPE = U
NORAD_CAT_ID   = 82381
ELEMENT_SET_NO = 999
REV_AT_EPOCH   = 52524
BSTAR          = .22931E-2
MEAN_MOTION_DOT = .20169E-3
MEAN_MOTION_DDOT = 0

CCSDS_OMM_VERS = 2.0
CREATION_DATE  = 
ORIGINATOR     = 

OBJECT_NAME    = UNKNOWN
OBJECT_ID      = 
CENTER_NAME    = EARTH
REF_FRAME      = TEME
TIME_SYSTEM    = UTC
MEAN_ELEMENT_THEORY = SGP/SGP4

EPOCH          = 2026-03-19T08:39:41.604480
MEAN_MOTION    = 15.04959666
ECCENTRICITY   = .000845
INCLINATION    = 86.6555
RA_OF_ASC_NODE = 113.8198
ARG_OF_PERICENTER = 148.1345
MEAN_ANOMALY   = 212.0403

EPHEMERIS_TYPE = 0
CLASSIFICATION_TYPE = U
NORAD_CAT_ID   = 82402
ELEMENT_SET_NO = 999
REV_AT_EPOCH   = 46899
BSTAR          = .29798E-3
MEAN_MOTION_DOT = .4255E-4
MEAN_MOTION_DDOT = 0

