UNKNOWN                 
1 82189U          26079.08981512  .00000273  00000+0  10417-3 0  9993
2 82189  74.0332 229.8021 0015861  34.6420 325.5762 14.35289191646383
UNKNOWN                 
1 82199U          26079.50332016  .00000457  00000+0  38180-3 0  9991
2 82199  82.9692 160.3935 0039442 119.3839 258.9782 13.85899979623235
UNKNOWN                 
1 82205U          26078.67928223  .00001442  00000+0  42170-3 0  9996
2 82205  63.0106 330.0053 0496552 303.0078  52.4172 13.94056045621514
UNKNOWN                 
1 82223U          26077.63672177  .00002372  00000+0  12823-2 0  9999
2 82223  99.3155 332.3329 0069351  76.3140 284.5740 14.12383873462328
UNKNOWN                 
1 82250U          26080.57934323  .00004149  00000+0  21290-2 0  9992
2 82250  98.9067 350.7509 0069875 273.3328 208.8658 14.14666342630609
UNKNOWN                 
1 82272U          26080.13827861  .00001019  00000+0  32964-2 0  9999
2 82272  67.5285  22.5336 0753718  42.8367 322.8900 12.33636973284076
UNKNOWN                 
1 82303U          26079.82661147  .00021905  00000+0  16821-1 0  9990
2 82303  81.9358 278.0347 0042389  27.7449 351.2511 13.92564920528051
UNKNOWN                 
1 82311U          26078.58847654  .00000419  00000+0  64659-3 0  9991
2 82311  99.4217 132.9929 0109263  64.7942 296.4477 13.54679387563430
UNKNOWN                 
1 82363U          26080.43215770  .00000593  00000+0  10309-2 0  9998
2 82363  66.9398 342.6383 0450777 102.0599 263.1316 13.15703865303243
UNKNOWN                 
1 82369U          26080.49928462  .00000031  00000+0  49562-4 0  9991
2 82369  98.8953  97.5799 0084129  66.1756 294.8198 13.98233579570972
UNKNOWN                 
1 82381U          26079.09325242  .00020169  00000+0  22931-2 0  9999
2 82381  98.3907 313.7951 0006719 183.0917 177.0257 14.86262725525241
UNKNOWN                 
1 82402U          26078.36089820  .00004255  00000+0  29798-3 0  9998
2 82402  86.6555 113.8198 0008450 148.1345 212.0403 15.04959666468996
